ONEWEB-0159             
1 48062U 21025W   25304.12491022 -.00000196  00000+0 -57057-3 0  9999
2 48062  87.9040   5.7260 0001933  92.3680 267.7670 13.13468283223533
ONEWEB-0164             
1 48063U 21025X   25304.18246764  .00000077  00000+0  17482-3 0  9991
2 48063  87.9039   5.7226 0001821 102.2153 257.9180 13.13471887223526
ONEWEB-0167             
1 48064U 21025Y   25304.13423292 -.00000173  00000+0 -50799-3 0  9997
2 48064  87.9028   5.7628 0002594 100.0689 260.0733 13.13469631223500
ONEWEB-0166             
1 48065U 21025Z   25304.23326387  .00000279  00000+0  72886-3 0  9992
2 48065  87.9037   5.6964 0001803  93.4466 266.6869 13.13469011223596
ONEWEB-0151             
1 48066U 21025AA  25304.23495019  .00000279  00000+0  72990-3 0  9998
2 48066  87.9038   5.7217 0002023 101.2403 258.8953 13.13471807223531
ONEWEB-0170             
1 48067U 21025AB  25304.24342252  .00000312  00000+0  81852-3 0  9995
2 48067  87.9040   5.7273 0002053 112.9556 247.1790 13.13468349223490
ONEWEB-0168             
1 48068U 21025AC  25304.22818756  .00000167  00000+0  42332-3 0  9999
2 48068  87.9040   5.7124 0001977  92.9844 267.1511 13.13469301223501
ONEWEB-0173             
1 48069U 21025AD  25304.21970926 -.00000149  00000+0 -44208-3 0  9993
2 48069  87.9037   5.7215 0002266  93.7920 266.3468 13.13471857223742
